[{"OBJECT_NAME":"STARLINK-1656","OBJECT_ID":"2020-062AE","EPOCH":"2026-03-09T22:08:49.885440","MEAN_MOTION":15.52163178,"ECCENTRICITY":0.00027689,"INCLINATION":53.0506,"RA_OF_ASC_NODE":358.4215,"ARG_OF_PERICENTER":148.6798,"MEAN_ANOMALY":211.4376,"EPHEMERIS_TYPE":0,"CLASSIFICATION_TYPE":"U","NORAD_CAT_ID":46353,"ELEMENT_SET_NO":999,"REV_AT_EPOCH":30458,"BSTAR":0.0018174616,"MEAN_MOTION_DOT":0.00113057,"MEAN_MOTION_DDOT":0},{"OBJECT_NAME":"ICEYE-X25","OBJECT_ID":"2023-084AH","EPOCH":"2026-03-09T21:45:30.911328","MEAN_MOTION":15.51745691,"ECCENTRICITY":0.00040532,"INCLINATION":97.576,"RA_OF_ASC_NODE":209.03,"ARG_OF_PERICENTER":281.7425,"MEAN_ANOMALY":78.3371,"EPHEMERIS_TYPE":0,"CLASSIFICATION_TYPE":"U","NORAD_CAT_ID":56963,"ELEMENT_SET_NO":999,"REV_AT_EPOCH":15253,"BSTAR":0.0009263887,"MEAN_MOTION_DOT":0.00055448,"MEAN_MOTION_DDOT":0}]
